CCSDS_OMM_VERS = 2.0
CREATION_DATE  = 
ORIGINATOR     = 

OBJECT_NAME    = SL-16 R/B
OBJECT_ID      = 1993-016B
CENTER_NAME    = EARTH
REF_FRAME      = TEME
TIME_SYSTEM    = UTC
MEAN_ELEMENT_THEORY = SGP/SGP4

EPOCH          = 2026-02-17T00:01:09.115680
MEAN_MOTION    = 14.15300761
ECCENTRICITY   = .00105177
INCLINATION    = 71.0046
RA_OF_ASC_NODE = 258.6358
ARG_OF_PERICENTER = 342.3613
MEAN_ANOMALY   = 17.7143

EPHEMERIS_TYPE = 0
CLASSIFICATION_TYPE = U
NORAD_CAT_ID   = 22566
ELEMENT_SET_NO = 999
REV_AT_EPOCH   = 69924
BSTAR          = -.91829701E-4
MEAN_MOTION_DOT = -.227E-5
MEAN_MOTION_DDOT = 0

CCSDS_OMM_VERS = 2.0
CREATION_DATE  = 
ORIGINATOR     = 

OBJECT_NAME    = COSMOS 2242
OBJECT_ID      = 1993-024A
CENTER_NAME    = EARTH
REF_FRAME      = TEME
TIME_SYSTEM    = UTC
MEAN_ELEMENT_THEORY = SGP/SGP4

EPOCH          = 2026-02-17T02:36:26.156448
MEAN_MOTION    = 14.96464022
ECCENTRICITY   = .00169794
INCLINATION    = 82.5178
RA_OF_ASC_NODE = 286.4036
ARG_OF_PERICENTER = 19.6328
MEAN_ANOMALY   = 340.5544

EPHEMERIS_TYPE = 0
CLASSIFICATION_TYPE = U
NORAD_CAT_ID   = 22626
ELEMENT_SET_NO = 999
REV_AT_EPOCH   = 77731
BSTAR          = .18403046E-3
MEAN_MOTION_DOT = .212E-4
MEAN_MOTION_DDOT = 0

CCSDS_OMM_VERS = 2.0
CREATION_DATE  = 
ORIGINATOR     = 

OBJECT_NAME    = SL-16 R/B
OBJECT_ID      = 1993-059B
CENTER_NAME    = EARTH
REF_FRAME      = TEME
TIME_SYSTEM    = UTC
MEAN_ELEMENT_THEORY = SGP/SGP4

EPOCH          = 2026-02-17T10:21:48.574080
MEAN_MOTION    = 14.17227592
ECCENTRICITY   = .0019328
INCLINATION    = 70.9891
RA_OF_ASC_NODE = 53.8463
ARG_OF_PERICENTER = 244.4621
MEAN_ANOMALY   = 115.4505

EPHEMERIS_TYPE = 0
CLASSIFICATION_TYPE = U
NORAD_CAT_ID   = 22803
ELEMENT_SET_NO = 999
REV_AT_EPOCH   = 67666
BSTAR          = -.4713E-4
MEAN_MOTION_DOT = -.143E-5
MEAN_MOTION_DDOT = 0

CCSDS_OMM_VERS = 2.0
CREATION_DATE  = 
ORIGINATOR     = 

OBJECT_NAME    = ARIANE 40 R/B
OBJECT_ID      = 1993-061H
CENTER_NAME    = EARTH
REF_FRAME      = TEME
TIME_SYSTEM    = UTC
MEAN_ELEMENT_THEORY = SGP/SGP4

EPOCH          = 2026-02-17T04:02:24.041184
MEAN_MOTION    = 14.32849831
ECCENTRICITY   = .00102625
INCLINATION    = 98.4961
RA_OF_ASC_NODE = 117.4564
ARG_OF_PERICENTER = 351.2636
MEAN_ANOMALY   = 8.8368

EPHEMERIS_TYPE = 0
CLASSIFICATION_TYPE = U
NORAD_CAT_ID   = 22830
ELEMENT_SET_NO = 999
REV_AT_EPOCH   = 69116
BSTAR          = .99278601E-4
MEAN_MOTION_DOT = .228E-5
MEAN_MOTION_DDOT = 0

CCSDS_OMM_VERS = 2.0
CREATION_DATE  = 
ORIGINATOR     = 

OBJECT_NAME    = COSMOS 2278
OBJECT_ID      = 1994-023A
CENTER_NAME    = EARTH
REF_FRAME      = TEME
TIME_SYSTEM    = UTC
MEAN_ELEMENT_THEORY = SGP/SGP4

EPOCH          = 2026-02-17T12:17:26.602944
MEAN_MOTION    = 14.14364721
ECCENTRICITY   = .0007029
INCLINATION    = 71.0506
RA_OF_ASC_NODE = 217.3107
ARG_OF_PERICENTER = 53.2499
MEAN_ANOMALY   = 306.9268

EPHEMERIS_TYPE = 0
CLASSIFICATION_TYPE = U
NORAD_CAT_ID   = 23087
ELEMENT_SET_NO = 999
REV_AT_EPOCH   = 64195
BSTAR          = .11095E-3
MEAN_MOTION_DOT = .165E-5
MEAN_MOTION_DDOT = 0

CCSDS_OMM_VERS = 2.0
CREATION_DATE  = 
ORIGINATOR     = 

OBJECT_NAME    = SL-16 R/B
OBJECT_ID      = 1994-023B
CENTER_NAME    = EARTH
REF_FRAME      = TEME
TIME_SYSTEM    = UTC
MEAN_ELEMENT_THEORY = SGP/SGP4

EPOCH          = 2026-02-17T11:55:44.472000
MEAN_MOTION    = 14.15008032
ECCENTRICITY   = .0004775
INCLINATION    = 70.9993
RA_OF_ASC_NODE = 113.2970
ARG_OF_PERICENTER = 304.8115
MEAN_ANOMALY   = 55.2557

EPHEMERIS_TYPE = 0
CLASSIFICATION_TYPE = U
NORAD_CAT_ID   = 23088
ELEMENT_SET_NO = 999
REV_AT_EPOCH   = 64323
BSTAR          = .21093E-3
MEAN_MOTION_DOT = .361E-5
MEAN_MOTION_DDOT = 0

CCSDS_OMM_VERS = 2.0
CREATION_DATE  = 
ORIGINATOR     = 

OBJECT_NAME    = SL-16 R/B
OBJECT_ID      = 1994-074B
CENTER_NAME    = EARTH
REF_FRAME      = TEME
TIME_SYSTEM    = UTC
MEAN_ELEMENT_THEORY = SGP/SGP4

EPOCH          = 2026-02-17T02:08:09.277728
MEAN_MOTION    = 14.79383204
ECCENTRICITY   = .00051761
INCLINATION    = 97.7137
RA_OF_ASC_NODE = 79.7384
ARG_OF_PERICENTER = 293.5892
MEAN_ANOMALY   = 86.9807

EPHEMERIS_TYPE = 0
CLASSIFICATION_TYPE = U
NORAD_CAT_ID   = 23343
ELEMENT_SET_NO = 999
REV_AT_EPOCH   = 68420
BSTAR          = .83848577E-4
MEAN_MOTION_DOT = .576E-5
MEAN_MOTION_DDOT = 0

CCSDS_OMM_VERS = 2.0
CREATION_DATE  = 
ORIGINATOR     = 

OBJECT_NAME    = SL-16 R/B
OBJECT_ID      = 1994-077B
CENTER_NAME    = EARTH
REF_FRAME      = TEME
TIME_SYSTEM    = UTC
MEAN_ELEMENT_THEORY = SGP/SGP4

EPOCH          = 2026-02-17T09:58:50.425824
MEAN_MOTION    = 14.15562468
ECCENTRICITY   = .000395
INCLINATION    = 70.9830
RA_OF_ASC_NODE = 35.1396
ARG_OF_PERICENTER = 230.6415
MEAN_ANOMALY   = 129.4358

EPHEMERIS_TYPE = 0
CLASSIFICATION_TYPE = U
NORAD_CAT_ID   = 23405
ELEMENT_SET_NO = 999
REV_AT_EPOCH   = 61336
BSTAR          = .15192E-3
MEAN_MOTION_DOT = .249E-5
MEAN_MOTION_DDOT = 0

CCSDS_OMM_VERS = 2.0
CREATION_DATE  = 
ORIGINATOR     = 

OBJECT_NAME    = ARIANE 40+ R/B
OBJECT_ID      = 1995-021B
CENTER_NAME    = EARTH
REF_FRAME      = TEME
TIME_SYSTEM    = UTC
MEAN_ELEMENT_THEORY = SGP/SGP4

EPOCH          = 2026-02-17T04:04:48.541728
MEAN_MOTION    = 14.39757111
ECCENTRICITY   = .00065978
INCLINATION    = 98.4542
RA_OF_ASC_NODE = 119.9263
ARG_OF_PERICENTER = 193.5673
MEAN_ANOMALY   = 193.9105

EPHEMERIS_TYPE = 0
CLASSIFICATION_TYPE = U
NORAD_CAT_ID   = 23561
ELEMENT_SET_NO = 999
REV_AT_EPOCH   = 61629
BSTAR          = .12115506E-3
MEAN_MOTION_DOT = .336E-5
MEAN_MOTION_DDOT = 0

CCSDS_OMM_VERS = 2.0
CREATION_DATE  = 
ORIGINATOR     = 

OBJECT_NAME    = SL-16 R/B
OBJECT_ID      = 1995-058B
CENTER_NAME    = EARTH
REF_FRAME      = TEME
TIME_SYSTEM    = UTC
MEAN_ELEMENT_THEORY = SGP/SGP4

EPOCH          = 2026-02-17T11:49:12.483840
MEAN_MOTION    = 14.15495969
ECCENTRICITY   = .0011582
INCLINATION    = 71.0198
RA_OF_ASC_NODE = 222.6569
ARG_OF_PERICENTER = 160.3228
MEAN_ANOMALY   = 199.8344

EPHEMERIS_TYPE = 0
CLASSIFICATION_TYPE = U
NORAD_CAT_ID   = 23705
ELEMENT_SET_NO = 999
REV_AT_EPOCH   = 56499
BSTAR          = -.91671E-5
MEAN_MOTION_DOT = -.65E-6
MEAN_MOTION_DDOT = 0

CCSDS_OMM_VERS = 2.0
CREATION_DATE  = 
ORIGINATOR     = 

OBJECT_NAME    = SL-16 R/B
OBJECT_ID      = 1996-051B
CENTER_NAME    = EARTH
REF_FRAME      = TEME
TIME_SYSTEM    = UTC
MEAN_ELEMENT_THEORY = SGP/SGP4

EPOCH          = 2026-02-17T11:40:04.001952
MEAN_MOTION    = 14.12409947
ECCENTRICITY   = .0016843
INCLINATION    = 70.7572
RA_OF_ASC_NODE = 218.0008
ARG_OF_PERICENTER = 176.7609
MEAN_ANOMALY   = 183.3623

EPHEMERIS_TYPE = 0
CLASSIFICATION_TYPE = U
NORAD_CAT_ID   = 24298
ELEMENT_SET_NO = 999
REV_AT_EPOCH   = 51879
BSTAR          = .72576E-4
MEAN_MOTION_DOT = .85E-6
MEAN_MOTION_DDOT = 0

CCSDS_OMM_VERS = 2.0
CREATION_DATE  = 
ORIGINATOR     = 

OBJECT_NAME    = ORBVIEW 2 (SEASTAR)
OBJECT_ID      = 1997-037A
CENTER_NAME    = EARTH
REF_FRAME      = TEME
TIME_SYSTEM    = UTC
MEAN_ELEMENT_THEORY = SGP/SGP4

EPOCH          = 2026-02-17T09:55:07.182912
MEAN_MOTION    = 14.35478709
ECCENTRICITY   = .0003144
INCLINATION    = 98.8529
RA_OF_ASC_NODE = 212.1917
ARG_OF_PERICENTER = 112.4078
MEAN_ANOMALY   = 247.7440

EPHEMERIS_TYPE = 0
CLASSIFICATION_TYPE = U
NORAD_CAT_ID   = 24883
ELEMENT_SET_NO = 999
REV_AT_EPOCH   = 50556
BSTAR          = .1174E-3
MEAN_MOTION_DOT = .291E-5
MEAN_MOTION_DDOT = 0

